STARLINK-5428           
1 54800U 22175AU  24062.38031489 -.00000155  00000+0  83568-5 0  9990
2 54800  53.2171 103.8006 0001410  83.8470 276.2683 15.08844239 68756
STARLINK-5429           
1 54801U 22175AV  24062.42721337  .00001335  00000+0  10197-3 0  9990
2 54801  53.2158 113.3808 0001560  89.2399 270.8772 15.08842347 68627
STARLINK-5426           
1 54802U 22175AW  24062.21698106  .00000871  00000+0  72831-4 0  9993
2 54802  53.2169  59.2202 0001559  99.7186 260.3982 15.08843968 69363
STARLINK-5430           
1 54803U 22175AX  24062.37202838  .00000858  00000+0  72023-4 0  9992
2 54803  53.2159 113.7334 0001424  92.7291 267.3865 15.08840182 68615
STARLINK-5422           
1 54804U 22175AY  24062.58334491  .00042722  00000+0  26883-2 0  9994
2 54804  53.2139  97.6369 0001460  85.5099  85.6632 15.08811484 66690
STARLINK-5417           
1 54805U 22175AZ  24062.37156616  .00000341  00000+0  39496-4 0  9990
2 54805  53.2158  98.7790 0001356  85.0113 275.1034 15.08845459 68826
STARLINK-5412           
1 54806U 22175BA  24062.36051660  .00001076  00000+0  85701-4 0  9999
2 54806  53.2171  98.7132 0001510  84.2898 275.8266 15.08842181 68828
STARLINK-5410           
1 54807U 22175BB  24062.36420239  .00001620  00000+0  11986-3 0  9990
2 54807  53.2162  98.7357 0001488  83.2584 276.8577 15.08844172 68821
STARLINK-5413           
1 54808U 22175BC  24062.33805379  .00000164  00000+0  28409-4 0  9991
2 54808  53.2167  84.3905 0001383  93.8898 266.2253 15.08835486 69021
STARLINK-5414           
1 54809U 22175BD  24062.42306932  .00001176  00000+0  91944-4 0  9991
2 54809  53.2164  98.3917 0001567  87.1566 272.9605 15.08845350 68833
STARLINK-5408           
1 54810U 22175BE  24062.31131879  .00000614  00000+0  56641-4 0  9998
2 54810  53.2163  94.1124 0001522  87.0716 273.0451 15.08841757 68888
STARLINK-5424           
1 54811U 22175BF  24062.33807267  .00001547  00000+0  11525-3 0  9999
2 54811  53.2168  94.2651 0001704  92.2058 267.9130 15.08844082 66720
STARLINK-5382           
1 54820U 22177A   24061.66249350  .00000831  00000+0  76561-4 0  9996
2 54820  42.9998 183.8453 0001532 303.6995  56.3701 15.02539930 65932
STARLINK-5385           
1 54821U 22177B   24061.65028088  .00002005  00000+0  16343-3 0  9995
2 54821  43.0012 183.7556 0000901 263.7791  96.2949 15.02537578 65937
STARLINK-5101           
1 54822U 22177C   24061.64584498 -.00000007  00000+0  14596-4 0  9997
2 54822  43.0031 183.7222 0001529 278.6357  81.4312 15.02536933 65933
STARLINK-5106           
1 54823U 22177D   24061.65916001  .00001330  00000+0  11348-3 0  9998
2 54823  43.0020 183.8214 0001226 280.6085  79.4620 15.02543317 64953
STARLINK-4643           
1 54824U 22177E   24062.65300740  .00015819  00000+0  11850-2 0  9991
2 54824  43.0020 178.3753 0000533 242.5626 117.5162 15.02486932 65101
STARLINK-4801           
1 54825U 22177F   24062.51338476  .00000159  00000+0  26859-4 0  9992
2 54825  43.0024 179.0432 0001257 272.6776  87.3922 15.02537233 66067
STARLINK-5107           
1 54826U 22177G   24061.64695851  .00005676  00000+0  43471-3 0  9996
2 54826  42.9982 183.7285 0001702 302.8706  57.1973 15.02553907 65933
STARLINK-5383           
1 54827U 22177H   24062.43692233  .00000594  00000+0  59026-4 0  9994
2 54827  43.0000 179.3354 0000977 281.3688  78.7044 15.02536274 66069
STARLINK-5381           
1 54828U 22177J   24061.70235392  .00025220  00000+0  18805-2 0  9994
2 54828  42.9995 183.2806 0000382 249.4556 110.6245 15.02431080 65940
STARLINK-5380           
1 54829U 22177K   24061.65250282  .00000248  00000+0  33424-4 0  9993
2 54829  43.0025 183.7714 0000999 270.6822  89.3906 15.02549692 65930
STARLINK-5394           
1 54830U 22177L   24062.42803909 -.00000822  00000+0 -45796-4 0  9996
2 54830  43.0022 179.2670 0001129 283.4521  76.6196 15.02542695 66054
STARLINK-5395           
1 54831U 22177M   24061.64251702  .00000494  00000+0  51662-4 0  9990
2 54831  43.0025 183.6958 0001053 272.2078  87.8643 15.02538019 64958
STARLINK-5393           
1 54832U 22177N   24062.40399702  .00000908  00000+0  82226-4 0  9999
2 54832  43.0015 166.9512 0000931 277.9025  82.1712 15.02541762 66198
STARLINK-5391           
1 54833U 22177P   24062.76710853 -.00001623  00000+0 -10510-3 0  9996
2 54833  43.0031 177.5097 0000968 311.8701  48.2058 15.02526632 65129
STARLINK-5386           
1 54834U 22177Q   24061.62919182  .00001489  00000+0  12528-3 0  9996
2 54834  43.0012 183.5935 0001110 279.7058  80.3659 15.02540387 64951
STARLINK-5389           
1 54835U 22177R   24061.70011327  .00001575  00000+0  13160-3 0  9999
2 54835  43.0010 183.2658 0001403 269.2658  90.8023 15.02539289 65944
STARLINK-5384           
1 54836U 22177S   24062.75597442 -.00000356  00000+0 -11252-4 0  9992
2 54836  43.0033 177.4283 0001171 268.9863  91.0845 15.02557345 65123
STARLINK-5369           
1 54837U 22177T   24062.49119112 -.00000286  00000+0 -61046-5 0  9997
2 54837  43.0032 178.8828 0001222 265.5359  94.5343 15.02535903 66064
STARLINK-5372           
1 54838U 22177U   24061.68568514 -.00000153  00000+0  37386-5 0  9994
2 54838  43.0007 183.1552 0001286 277.1616  82.9080 15.02539829 64962
STARLINK-5110           
1 54839U 22177V   24062.80918762  .00004342  00000+0  33671-3 0  9998
2 54839  42.9953 176.9611 0001576 108.3086 251.7927 15.02485999 65139
STARLINK-5368           
1 54840U 22177W   24062.80691494 -.00006065  00000+0 -43395-3 0  9990
2 54840  43.0014 176.9480 0001098 274.1785  85.8931 15.02565216 65134
STARLINK-4659           
1 54841U 22177X   24062.55322170  .00000746  00000+0  70294-4 0  9992
2 54841  43.0028 178.4866 0001151 268.5136  91.5574 15.02542185 66073
STARLINK-5387           
1 54842U 22177Y   24062.80026648 -.00000840  00000+0 -47159-4 0  9993
2 54842  43.0003 176.8975 0000799 261.0747  99.0005 15.02537433 65131
STARLINK-5304           
1 54843U 22177Z   24062.48008907  .00000538  00000+0  54919-4 0  9990
2 54843  43.0013 178.7964 0001041 270.9161  89.1562 15.02537529 66069
STARLINK-5388           
1 54844U 22177AA  24061.66570096  .00004203  00000+0  32595-3 0  9991
2 54844  43.0015 182.9852 0001379 284.6532  75.4157 15.02548032 65948
STARLINK-5082           
1 54845U 22177AB  24061.80642859  .00000579  00000+0  57926-4 0  9993
2 54845  43.0025 182.3422 0001206 275.1326  84.9379 15.02538676 64989
STARLINK-5360           
1 54846U 22177AC  24061.66681045  .00000183  00000+0  28624-4 0  9992
2 54846  43.0005 183.0142 0001293 278.3898  81.6797 15.02547447 64962
STARLINK-5061           
1 54847U 22177AD  24061.69396464  .00000653  00000+0  63371-4 0  9994
2 54847  42.9995 157.2039 0000898 267.0710  93.0029 15.02540156 66243
STARLINK-5432           
1 54848U 22177AE  24061.60071035  .00008492  00000+0  64275-3 0  9992
2 54848  43.0009 171.2300 0001294 276.7311  83.3384 15.02545756 65093
STARLINK-5434           
1 54849U 22177AF  24061.66349049 -.00000587  00000+0 -28416-4 0  9999
2 54849  42.9998 182.9826 0001496 289.5427  70.5254 15.02532003 65944
STARLINK-5087           
1 54850U 22177AG  24062.72638848  .00002783  00000+0  22091-3 0  9997
2 54850  43.0016 165.0541 0001204 275.4033  84.6672 15.02547641 65268
STARLINK-5084           
1 54851U 22177AH  24062.46381003  .00002216  00000+0  17900-3 0  9991
2 54851  43.0013 166.5253 0001197 278.4589  81.6117 15.02546193 66209
STARLINK-5418           
1 54852U 22177AJ  24062.71972602  .00001151  00000+0  10020-3 0  9994
2 54852  43.0020 165.0038 0000926 271.3494  88.7242 15.02546575 65265
STARLINK-5427           
1 54853U 22177AK  24062.39067505  .00000925  00000+0  83546-4 0  9998
2 54853  43.0013 166.8362 0000800 263.8574  96.2177 15.02538510 66197
STARLINK-5419           
1 54854U 22177AL  24062.51475043 -.00000181  00000+0  16585-5 0  9998
2 54854  43.0012 166.0435 0001200 273.5574  86.5131 15.02540914 66219
STARLINK-5416           
1 54855U 22177AM  24062.45049147  .00002647  00000+0  21091-3 0  9998
2 54855  43.0008 166.4227 0001254 270.5319  89.5379 15.02544877 66209
STARLINK-5086           
1 54856U 22177AN  24062.62996362  .00019507  00000+0  14557-2 0  9999
2 54856  43.0009 165.1879 0000839 240.7287 119.3472 15.02520513 65252
STARLINK-5078           
1 54857U 22177AP  24061.64387802  .00001800  00000+0  14824-3 0  9999
2 54857  43.0004 170.6956 0001392 267.8581  92.2102 15.02543028 65106
STARLINK-5407           
1 54858U 22177AQ  24062.57678519  .00002601  00000+0  20746-3 0  9991
2 54858  43.0008 165.6493 0001341 268.6358  91.4331 15.02546191 65240
STARLINK-5409           
1 54859U 22177AR  24061.70260517  .00005484  00000+0  42068-3 0  9994
2 54859  43.0000 170.2713 0001491 275.2236  84.8436 15.02538913 66094
STARLINK-5406           
1 54860U 22177AS  24061.76350873  .00001338  00000+0  11405-3 0  9992
2 54860  43.0025 169.8679 0001330 275.7533  84.3158 15.02549130 66106
STARLINK-5400           
1 54861U 22177AT  24062.57789499  .00002138  00000+0  17323-3 0  9997
2 54861  43.0005 165.6573 0001241 265.4932  94.5769 15.02544086 65242
STARLINK-5403           
1 54862U 22177AU  24062.66769245 -.00002040  00000+0 -13598-3 0  9999
2 54862  43.0033 165.4859 0001358 250.5983 109.4712 15.02528605 65253
STARLINK-5405           
1 54863U 22177AV  24062.43717210  .00000322  00000+0  38928-4 0  9994
2 54863  43.0018 166.3229 0001130 275.5710  84.5003 15.02542889 66203
STARLINK-5359           
1 54864U 22177AW  24061.69371013  .00000283  00000+0  35988-4 0  9998
2 54864  43.0006 170.2040 0001128 284.2275  75.8442 15.02537812 66093
STARLINK-5411           
1 54865U 22177AX  24062.50698124 -.00000748  00000+0 -40303-4 0  9990
2 54865  43.0017 165.9882 0001282 261.8320  98.2377 15.02548259 65119
STARLINK-5398           
1 54866U 22177AY  24062.54792599  .00003085  00000+0  24324-3 0  9995
2 54866  43.0016 165.4337 0001227 279.1405  80.9298 15.02549612 66221
